OBJECT_NAME,OBJECT_ID,EPOCH,MEAN_MOTION,ECCENTRICITY,INCLINATION,RA_OF_ASC_NODE,ARG_OF_PERICENTER,MEAN_ANOMALY,EPHEMERIS_TYPE,CLASSIFICATION_TYPE,NORAD_CAT_ID,ELEMENT_SET_NO,REV_AT_EPOCH,BSTAR,MEAN_MOTION_DOT,MEAN_MOTION_DDOT
HAWK-10A,2024-149CA,2026-06-19T04:12:44.709408,14.96523069,.00049262,97.6898,246.0527,72.8889,287.2871,0,U,60540,999,10028,.10792866E-3,.117E-4,0
UMBRA-09,2024-149CB,2026-06-19T12:09:04.487616,15.18102410,.00006826,97.6958,257.7523,262.8042,97.3113,0,U,60541,999,10107,.54130346E-3,.10976E-3,0
QPS-SAR-8 (AMATERU-IV),2024-149CC,2026-06-19T10:55:55.833312,15.04148137,.00045533,97.6650,249.5867,103.8426,256.3306,0,U,60542,999,10061,.27146092E-3,.3705E-4,0
ARCTIC WEATHER SATELLITE,2024-149CD,2026-06-19T10:29:41.509536,14.89785300,.00036217,97.6805,240.8388,99.7457,260.4170,0,U,60543,999,9963,.64579157E-4,.566E-5,0
CAPELLA-15 (ACADIA-5),2024-149CE,2026-06-19T04:47:48.790464,14.92414825,.00047795,97.6778,243.0545,76.1249,284.0502,0,U,60544,999,10015,.30889741E-3,.3109E-4,0
HAWK-10B,2024-149CF,2026-06-19T02:36:14.711904,14.96521747,.00068714,97.6819,245.3402,87.4220,272.7788,0,U,60545,999,10027,.97325586E-4,.1049E-4,0
ICEYE-X39,2024-149CG,2026-06-19T11:29:12.939072,14.99907357,.00055602,97.6758,247.4710,112.6586,247.5226,0,U,60546,999,10046,.20880955E-3,.2532E-4,0
UMBRA-10,2024-149CH,2026-06-19T12:08:25.884960,15.18099205,.00004366,97.6975,257.7790,89.5116,270.6167,0,U,60547,999,10108,.66527756E-3,.13509E-3,0
ICEYE-X33,2024-149CJ,2026-06-19T12:03:40.644864,15.00881406,.00019279,97.7287,249.6304,90.3057,269.8387,0,U,60548,999,10055,.30124421E-3,.3773E-4,0
ICEYE-X40,2024-149CK,2026-06-19T04:09:04.717728,14.97949995,.00065087,97.6821,246.6369,76.3129,283.8818,0,U,60549,999,10037,.15224762E-3,.1738E-4,0
SATELIOT_1,2024-149CL,2026-06-19T03:56:08.605536,14.98078436,.0008407,97.6758,246.0289,74.8130,285.4022,0,U,60550,999,10036,.20043836E-3,.2315E-4,0
BRO-14,2024-149CM,2026-06-19T04:50:24.929952,14.96178137,.00080477,97.6872,245.9432,91.8021,268.4122,0,U,60551,999,10029,.63938107E-4,.663E-5,0
SATELIOT_3,2024-149CN,2026-06-19T11:22:11.681184,14.98060231,.0005928,97.6815,247.1273,81.3664,278.8230,0,U,60552,999,10042,.13948259E-3,.1592E-4,0
BRO-15,2024-149CP,2026-06-19T10:50:22.775136,14.96167940,.00096943,97.6829,245.7899,81.4955,278.7364,0,U,60553,999,10034,.1018991E-3,.1091E-4,0
UM5-RIBAT,2024-149CQ,2026-06-19T11:19:37.178112,15.01086033,.00033576,97.6631,248.2419,58.1411,302.0139,0,U,60554,999,10053,.18880482E-3,.2356E-4,0
UM5-EOSAT,2024-149CR,2026-06-19T02:30:24.957792,15.01544957,.00088674,97.6714,248.8179,108.2132,252.0058,0,U,60555,999,10050,.28841057E-3,.3677E-4,0
LASARSAT,2024-247Q,2026-06-19T11:53:29.592096,15.46491567,.00079381,44.9733,249.2437,344.7299,15.3350,0,U,62391,999,8367,.57165975E-3,.2878E-3,0
CROCUBE,2024-247T,2026-06-19T11:46:17.971392,15.48397693,.00077409,44.9701,246.5654,349.0739,10.9982,0,U,62394,999,8370,.60621754E-3,.32668E-3,0
TEVEL2-4,2025-052D,2026-06-19T11:08:38.588064,15.34677450,.00049606,97.3895,66.8595,98.8525,261.3280,0,U,63213,999,7046,.48519551E-3,.16248E-3,0
TEVEL2-5,2025-052E,2026-06-19T05:22:55.427232,15.34496992,.00048787,97.3892,66.5660,100.7080,259.4713,0,U,63214,999,7042,.46766436E-3,.15567E-3,0
TEVEL2-6,2025-052F,2026-06-19T10:22:27.715008,15.34467425,.00047569,97.3899,66.7589,100.9120,259.2659,0,U,63215,999,7045,.47004147E-3,.15632E-3,0
TEVEL2-1,2025-052H,2026-06-19T11:05:23.151264,15.33930416,.0004865,97.3871,66.4107,109.0223,251.1547,0,U,63217,999,7044,.46770142E-3,.15291E-3,0
TEVEL2-3,2025-052J,2026-06-19T10:57:33.185376,15.33986782,.00048346,97.3873,66.4272,109.5080,250.6686,0,U,63218,999,7044,.47447794E-3,.15541E-3,0
TEVEL2-2,2025-052K,2026-06-19T11:05:49.112736,15.33940234,.0004815,97.3874,66.4133,109.7646,250.4117,0,U,63219,999,7044,.47967288E-3,.1569E-3,0
TEVEL2-9,2025-052AD,2026-06-19T10:37:32.489760,15.31954874,.00079758,97.3933,65.7639,124.5542,235.6454,0,U,63237,999,7037,.45436259E-3,.13964E-3,0
TEVEL2-7,2025-052AE,2026-06-19T05:20:46.029408,15.31652594,.00080263,97.3935,65.4597,125.5065,234.6926,0,U,63238,999,7033,.4363994E-3,.13282E-3,0
TEVEL2-8,2025-052AF,2026-06-19T10:14:54.765600,15.31641288,.00080572,97.3936,65.6402,125.3451,234.8545,0,U,63239,999,7036,.41531412E-3,.12631E-3,0
FORESAIL-1 PRIME,2025-276DS,2026-06-19T10:25:32.106432,15.18719306,.00039613,97.4197,243.6644,98.6161,261.5522,0,U,66778,999,3074,.19871349E-3,.4058E-4,0
