HAWK-10A                
1 60540U 24149CA  26170.17551747  .00001170  00000+0  10793-3 0  9999
2 60540  97.6898 246.0527 0004926  72.8889 287.2871 14.96523069100284
UMBRA-09                
1 60541U 24149CB  26170.50630194  .00010976  00000+0  54130-3 0  9998
2 60541  97.6958 257.7523 0000682 262.8042  97.3113 15.18102410101079
QPS-SAR-8 (AMATERU-IV)  
1 60542U 24149CC  26170.45550733  .00003705  00000+0  27146-3 0  9992
2 60542  97.6650 249.5867 0004553 103.8426 256.3306 15.04148137100611
ARCTIC WEATHER SATELLITE
1 60543U 24149CD  26170.43728599  .00000566  00000+0  64579-4 0  9992
2 60543  97.6805 240.8388 0003621  99.7457 260.4170 14.89785300 99633
CAPELLA-15 (ACADIA-5)   
1 60544U 24149CE  26170.19987026  .00003109  00000+0  30890-3 0  9992
2 60544  97.6778 243.0545 0004779  76.1249 284.0502 14.92414825100152
HAWK-10B                
1 60545U 24149CF  26170.10850361  .00001049  00000+0  97326-4 0  9994
2 60545  97.6819 245.3402 0006871  87.4220 272.7788 14.96521747100274
ICEYE-X39               
1 60546U 24149CG  26170.47862198  .00002532  00000+0  20881-3 0  9995
2 60546  97.6758 247.4710 0005560 112.6586 247.5226 14.99907357100468
UMBRA-10                
1 60547U 24149CH  26170.50585515  .00013509  00000+0  66528-3 0  9999
2 60547  97.6975 257.7790 0000436  89.5116 270.6167 15.18099205101086
ICEYE-X33               
1 60548U 24149CJ  26170.50255376  .00003773  00000+0  30124-3 0  9994
2 60548  97.7287 249.6304 0001927  90.3057 269.8387 15.00881406100553
ICEYE-X40               
1 60549U 24149CK  26170.17297127  .00001738  00000+0  15225-3 0  9992
2 60549  97.6821 246.6369 0006508  76.3129 283.8818 14.97949995100377
SATELIOT_1              
1 60550U 24149CL  26170.16398849  .00002315  00000+0  20044-3 0  9993
2 60550  97.6758 246.0289 0008407  74.8130 285.4022 14.98078436100366
BRO-14                  
1 60551U 24149CM  26170.20167743  .00000663  00000+0  63938-4 0  9990
2 60551  97.6872 245.9432 0008047  91.8021 268.4122 14.96178137100291
SATELIOT_3              
1 60552U 24149CN  26170.47374631  .00001592  00000+0  13948-3 0  9993
2 60552  97.6815 247.1273 0005928  81.3664 278.8230 14.98060231100425
BRO-15                  
1 60553U 24149CP  26170.45165249  .00001091  00000+0  10190-3 0  9995
2 60553  97.6829 245.7899 0009694  81.4955 278.7364 14.96167940100348
UM5-RIBAT               
1 60554U 24149CQ  26170.47195808  .00002356  00000+0  18880-3 0  9991
2 60554  97.6631 248.2419 0003357  58.1411 302.0139 15.01086033100536
UM5-EOSAT               
1 60555U 24149CR  26170.10445553  .00003677  00000+0  28841-3 0  9992
2 60555  97.6714 248.8179 0008867 108.2132 252.0058 15.01544957100501
LASARSAT                
1 62391U 24247Q   26170.49548139  .00028780  00000+0  57166-3 0  9991
2 62391  44.9733 249.2437 0007938 344.7299  15.3350 15.46491567 83678
CROCUBE                 
1 62394U 24247T   26170.49048578  .00032668  00000+0  60622-3 0  9997
2 62394  44.9701 246.5654 0007740 349.0739  10.9982 15.48397693 83708
TEVEL2-4                
1 63213U 25052D   26170.46433551  .00016248  00000+0  48520-3 0  9998
2 63213  97.3895  66.8595 0004960  98.8525 261.3280 15.34677450 70464
TEVEL2-5                
1 63214U 25052E   26170.22425263  .00015567  00000+0  46766-3 0  9997
2 63214  97.3892  66.5660 0004878 100.7080 259.4713 15.34496992 70424
TEVEL2-6                
1 63215U 25052F   26170.43226522  .00015632  00000+0  47004-3 0  9997
2 63215  97.3899  66.7589 0004756 100.9120 259.2659 15.34467425 70455
TEVEL2-1                
1 63217U 25052H   26170.46207351  .00015291  00000+0  46770-3 0  9991
2 63217  97.3871  66.4107 0004865 109.0223 251.1547 15.33930416 70445
TEVEL2-3                
1 63218U 25052J   26170.45663409  .00015541  00000+0  47448-3 0  9992
2 63218  97.3873  66.4272 0004834 109.5080 250.6686 15.33986782 70448
TEVEL2-2                
1 63219U 25052K   26170.46237399  .00015690  00000+0  47967-3 0  9990
2 63219  97.3874  66.4133 0004815 109.7646 250.4117 15.33940234 70444
TEVEL2-9                
1 63237U 25052AD  26170.44273715  .00013964  00000+0  45436-3 0  9991
2 63237  97.3933  65.7639 0007975 124.5542 235.6454 15.31954874 70377
TEVEL2-7                
1 63238U 25052AE  26170.22275497  .00013282  00000+0  43640-3 0  9995
2 63238  97.3935  65.4597 0008026 125.5065 234.6926 15.31652594 70332
TEVEL2-8                
1 63239U 25052AF  26170.42702275  .00012631  00000+0  41531-3 0  9991
2 63239  97.3936  65.6402 0008057 125.3451 234.8545 15.31641288 70362
FORESAIL-1 PRIME        
1 66778U 25276DS  26170.43439938  .00004058  00000+0  19871-3 0  9990
2 66778  97.4197 243.6644 0003961  98.6161 261.5522 15.18719306 30740
